{"type": "FeatureCollection", "features": [ {"type": "Feature", "properties": {"norad_id": 66650, "name": "BEE-1000", "group": "last-30-days", "lat": -0.8039218053116977, "lon": 97.74845610518135, "alt_km": 591.7792223683218, "timestamp": "2025-12-16T17:51:09.661351+00:00", "meta": {"OBJECT_NAME": "BEE-1000", "OBJECT_ID": "2025-274A", "EPOCH": "2025-12-15T20:06:54.966816", "MEAN_MOTION": 14.91674724, "ECCENTRICITY": 0.00104837, "INCLINATION": 97.7392, "RA_OF_ASC_NODE": 276.9688, "ARG_OF_PERICENTER": 239.8686, "MEAN_ANOMALY": 120.1495, "EPHEMERIS_TYPE": 0, "CLASSIFICATION_TYPE": "U", "NORAD_CAT_ID": 66650, "ELEMENT_SET_NO": 999, "REV_AT_EPOCH": 286, "BSTAR": 0.00011818074, "MEAN_MOTION_DOT": 1.133e-05, "MEAN_MOTION_DDOT": 0}, "tle": {"line1": "1 66650U 25274A   25349.83813619  .00001133  00000+0  11818-3 0  9994", "line2": "2 66650  97.7392 276.9688 0010483 239.8686 120.1495 14.91674724  2869"}}, "geometry": {"type": "Point", "coordinates": [97.74845610518135, -0.8039218053116977]}}, {"type": "Feature", "properties": {"norad_id": 66651, "name": "2025-274B", "group": "last-30-days", "lat": -7.821439104846538, "lon": 96.78922249872468, "alt_km": 591.2236622653982, "timestamp": "2025-12-16T17:51:09.661362+00:00", "meta": {"OBJECT_NAME": "2025-274B", "OBJECT_ID": "2025-274B", "EPOCH": "2025-12-15T20:05:08.998080", "MEAN_MOTION": 14.91824606, "ECCENTRICITY": 0.00107248, "INCLINATION": 97.7389, "RA_OF_ASC_NODE": 276.9692, "ARG_OF_PERICENTER": 238.7441, "MEAN_ANOMALY": 121.2728, "EPHEMERIS_TYPE": 0, "CLASSIFICATION_TYPE": "U", "NORAD_CAT_ID": 66651, "ELEMENT_SET_NO": 999, "REV_AT_EPOCH": 286, "BSTAR": 0.00024928111, "MEAN_MOTION_DOT": 2.462e-05, "MEAN_MOTION_DDOT": 0}, "tle": {"line1": "1 66651U 25274B   25349.83690970  .00002462  00000+0  24928-3 0  9990", "line2": "2 66651  97.7389 276.9692 0010724 238.7441 121.2728 14.91824606  2863"}}, "geometry": {"type": "Point", "coordinates": [96.78922249872468, -7.821439104846538]}}, {"type": "Feature", "properties": {"norad_id": 66652, "name": "2025-274C", "group": "last-30-days", "lat": -16.857274777940834, "lon": 95.50288331216487, "alt_km": 591.8797079931028, "timestamp": "2025-12-16T17:51:09.661372+00:00", "meta": {"OBJECT_NAME": "2025-274C", "OBJECT_ID": "2025-274C", "EPOCH": "2025-12-15T18:26:12.486048", "MEAN_MOTION": 14.91921542, "ECCENTRICITY": 0.00102973, "INCLINATION": 97.7394, "RA_OF_ASC_NODE": 276.9066, "ARG_OF_PERICENTER": 246.046, "MEAN_ANOMALY": 113.9681, "EPHEMERIS_TYPE": 0, "CLASSIFICATION_TYPE": "U", "NORAD_CAT_ID": 66652, "ELEMENT_SET_NO": 999, "REV_AT_EPOCH": 285, "BSTAR": 0.00021878425, "MEAN_MOTION_DOT": 2.159e-05, "MEAN_MOTION_DDOT": 0}, "tle": {"line1": "1 66652U 25274C   25349.76820007  .00002159  00000+0  21878-3 0  9993", "line2": "2 66652  97.7394 276.9066 0010297 246.0460 113.9681 14.91921542  2855"}}, "geometry": {"type": "Point", "coordinates": [95.50288331216487, -16.857274777940834]}}, {"type": "Feature", "properties": {"norad_id": 66653, "name": "2025-274D", "group": "last-30-days", "lat": -17.301507559816198, "lon": 95.43665089957405, "alt_km": 591.0526623203032, "timestamp": "2025-12-16T17:51:09.661384+00:00", "meta": {"OBJECT_NAME": "2025-274D", "OBJECT_ID": "2025-274D", "EPOCH": "2025-12-15T18:26:05.260416", "MEAN_MOTION": 14.91923776, "ECCENTRICITY": 0.00112375, "INCLINATION": 97.7391, "RA_OF_ASC_NODE": 276.9064, "ARG_OF_PERICENTER": 242.1819, "MEAN_ANOMALY": 117.8262, "EPHEMERIS_TYPE": 0, "CLASSIFICATION_TYPE": "U", "NORAD_CAT_ID": 66653, "ELEMENT_SET_NO": 999, "REV_AT_EPOCH": 285, "BSTAR": 0.00018746863, "MEAN_MOTION_DOT": 1.842e-05, "MEAN_MOTION_DDOT": 0}, "tle": {"line1": "1 66653U 25274D   25349.76811644  .00001842  00000+0  18747-3 0  9990", "line2": "2 66653  97.7391 276.9064 0011237 242.1819 117.8262 14.91923776  2850"}}, "geometry": {"type": "Point", "coordinates": [95.43665089957405, -17.301507559816198]}}, {"type": "Feature", "properties": {"norad_id": 66654, "name": "JACK E", "group": "last-30-days", "lat": -29.425981841626353, "lon": 93.47080382779296, "alt_km": 590.3074616523927, "timestamp": "2025-12-16T17:51:09.661394+00:00", "meta": {"OBJECT_NAME": "JACK E", "OBJECT_ID": "2025-274E", "EPOCH": "2025-12-15T18:22:58.143072", "MEAN_MOTION": 14.92103463, "ECCENTRICITY": 0.00117355, "INCLINATION": 97.7394, "RA_OF_ASC_NODE": 276.9099, "ARG_OF_PERICENTER": 243.8484, "MEAN_ANOMALY": 116.1528, "EPHEMERIS_TYPE": 0, "CLASSIFICATION_TYPE": "U", "NORAD_CAT_ID": 66654, "ELEMENT_SET_NO": 999, "REV_AT_EPOCH": 285, "BSTAR": 0.00021120165, "MEAN_MOTION_DOT": 2.093e-05, "MEAN_MOTION_DDOT": 0}, "tle": {"line1": "1 66654U 25274E   25349.76595073  .00002093  00000+0  21120-3 0  9994", "line2": "2 66654  97.7394 276.9099 0011735 243.8484 116.1528 14.92103463  2852"}}, "geometry": {"type": "Point", "coordinates": [93.47080382779296, -29.425981841626353]}}, {"type": "Feature", "properties": {"norad_id": 66655, "name": "2025-274F", "group": "last-30-days", "lat": -19.372003670061716, "lon": 95.12570770302148, "alt_km": 603.0603697133756, "timestamp": "2025-12-16T17:51:09.661405+00:00", "meta": {"OBJECT_NAME": "2025-274F", "OBJECT_ID": "2025-274F", "EPOCH": "2025-12-15T18:24:51.813504", "MEAN_MOTION": 14.9116583, "ECCENTRICITY": 0.00052589, "INCLINATION": 97.7322, "RA_OF_ASC_NODE": 276.907, "ARG_OF_PERICENTER": 10.5335, "MEAN_ANOMALY": 349.5992, "EPHEMERIS_TYPE": 0, "CLASSIFICATION_TYPE": "U", "NORAD_CAT_ID": 66655, "ELEMENT_SET_NO": 999, "REV_AT_EPOCH": 285, "BSTAR": 6.60162e-06, "MEAN_MOTION_DOT": 1.1e-07, "MEAN_MOTION_DDOT": 0}, "tle": {"line1": "1 66655U 25274F   25349.76726636  .00000011  00000+0  66016-5 0  9999", "line2": "2 66655  97.7322 276.9070 0005258  10.5335 349.5992 14.91165830  2852"}}, "geometry": {"type": "Point", "coordinates": [95.12570770302148, -19.372003670061716]}}, {"type": "Feature", "properties": {"norad_id": 66656, "name": "2025-274G", "group": "last-30-days", "lat": -42.62602732105098, "lon": 90.68491527046932, "alt_km": 589.3013437235923, "timestamp": "2025-12-16T17:51:09.661415+00:00", "meta": {"OBJECT_NAME": "2025-274G", "OBJECT_ID": "2025-274G", "EPOCH": "2025-12-15T18:19:33.556512", "MEAN_MOTION": 14.92295944, "ECCENTRICITY": 0.0012347, "INCLINATION": 97.7394, "RA_OF_ASC_NODE": 276.9124, "ARG_OF_PERICENTER": 245.5135, "MEAN_ANOMALY": 114.4797, "EPHEMERIS_TYPE": 0, "CLASSIFICATION_TYPE": "U", "NORAD_CAT_ID": 66656, "ELEMENT_SET_NO": 999, "REV_AT_EPOCH": 285, "BSTAR": 0.00023921984, "MEAN_MOTION_DOT": 2.39e-05, "MEAN_MOTION_DDOT": 0}, "tle": {"line1": "1 66656U 25274G   25349.76358283  .00002390  00000+0  23922-3 0  9998", "line2": "2 66656  97.7394 276.9124 0012347 245.5135 114.4797 14.92295944  2850"}}, "geometry": {"type": "Point", "coordinates": [90.68491527046932, -42.62602732105098]}}, {"type": "Feature", "properties": {"norad_id": 66657, "name": "SPIRONE", "group": "last-30-days", "lat": -55.23220351311605, "lon": 86.58273877322254, "alt_km": 590.6002684564401, "timestamp": "2025-12-16T17:51:09.661426+00:00", "meta": {"OBJECT_NAME": "SPIRONE", "OBJECT_ID": "2025-274H", "EPOCH": "2025-12-15T18:16:16.075488", "MEAN_MOTION": 14.92474915, "ECCENTRICITY": 0.00105763, "INCLINATION": 97.7391, "RA_OF_ASC_NODE": 276.9146, "ARG_OF_PERICENTER": 264.452, "MEAN_ANOMALY": 95.5493, "EPHEMERIS_TYPE": 0, "CLASSIFICATION_TYPE": "U", "NORAD_CAT_ID": 66657, "ELEMENT_SET_NO": 999, "REV_AT_EPOCH": 285, "BSTAR": 0.00025256556, "MEAN_MOTION_DOT": 2.537e-05, "MEAN_MOTION_DDOT": 0}, "tle": {"line1": "1 66657U 25274H   25349.76129717  .00002537  00000+0  25257-3 0  9993", "line2": "2 66657  97.7391 276.9146 0010576 264.4520  95.5493 14.92474915  2851"}}, "geometry": {"type": "Point", "coordinates": [86.58273877322254, -55.23220351311605]}}, {"type": "Feature", "properties": {"norad_id": 66658, "name": "2025-274J", "group": "last-30-days", "lat": -67.1974175500049, "lon": 79.01273833886276, "alt_km": 589.4809225009512, "timestamp": "2025-12-16T17:51:09.661437+00:00", "meta": {"OBJECT_NAME": "2025-274J", "OBJECT_ID": "2025-274J", "EPOCH": "2025-12-15T18:13:04.582848", "MEAN_MOTION": 14.92644507, "ECCENTRICITY": 0.00111235, "INCLINATION": 97.7391, "RA_OF_ASC_NODE": 276.9178, "ARG_OF_PERICENTER": 267.5727, "MEAN_ANOMALY": 92.4219, "EPHEMERIS_TYPE": 0, "CLASSIFICATION_TYPE": "U", "NORAD_CAT_ID": 66658, "ELEMENT_SET_NO": 999, "REV_AT_EPOCH": 285, "BSTAR": 0.00027078696, "MEAN_MOTION_DOT": 2.736e-05, "MEAN_MOTION_DDOT": 0}, "tle": {"line1": "1 66658U 25274J   25349.75908082  .00002736  00000+0  27079-3 0  9998", "line2": "2 66658  97.7391 276.9178 0011123 267.5727  92.4219 14.92644507  2857"}}, "geometry": {"type": "Point", "coordinates": [79.01273833886276, -67.1974175500049]}}, {"type": "Feature", "properties": {"norad_id": 66659, "name": "JACK K", "group": "last-30-days", "lat": -78.78105804941913, "lon": 54.60674104140401, "alt_km": 588.215688091791, "timestamp": "2025-12-16T17:51:09.661448+00:00", "meta": {"OBJECT_NAME": "JACK K", "OBJECT_ID": "2025-274K", "EPOCH": "2025-12-15T18:09:39.794112", "MEAN_MOTION": 14.92829314, "ECCENTRICITY": 0.00118457, "INCLINATION": 97.7392, "RA_OF_ASC_NODE": 276.9215, "ARG_OF_PERICENTER": 269.0078, "MEAN_ANOMALY": 90.9784, "EPHEMERIS_TYPE": 0, "CLASSIFICATION_TYPE": "U", "NORAD_CAT_ID": 66659, "ELEMENT_SET_NO": 999, "REV_AT_EPOCH": 285, "BSTAR": 0.00026285766, "MEAN_MOTION_DOT": 2.667e-05, "MEAN_MOTION_DDOT": 0}, "tle": {"line1": "1 66659U 25274K   25349.75671058  .00002667  00000+0  26286-3 0  9991", "line2": "2 66659  97.7392 276.9215 0011845 269.0078  90.9784 14.92829314  2859"}}, "geometry": {"type": "Point", "coordinates": [54.60674104140401, -78.78105804941913]}}]}